{
  "links" : {
    "next" : "https://api.nasa.gov/neo/rest/v1/feed?start_date=2010-02-09&end_date=2010-02-09&detailed=true&api_key=t0TVs3DtDT2H8Oy2Zy8m2eVrNsAVKAexjcZXUckd",
    "prev" : "https://api.nasa.gov/neo/rest/v1/feed?start_date=2010-02-07&end_date=2010-02-07&detailed=true&api_key=t0TVs3DtDT2H8Oy2Zy8m2eVrNsAVKAexjcZXUckd",
    "self" : "https://api.nasa.gov/neo/rest/v1/feed?start_date=2010-02-08&end_date=2010-02-08&detailed=true&api_key=t0TVs3DtDT2H8Oy2Zy8m2eVrNsAVKAexjcZXUckd"
  },
  "element_count" : 5,
  "near_earth_objects" : {
    "2010-02-08" : [ {
      "links" : {
        "self" : "https://api.nasa.gov/neo/rest/v1/neo/3740498?api_key=t0TVs3DtDT2H8Oy2Zy8m2eVrNsAVKAexjcZXUckd"
      },
      "neo_reference_id" : "3740498",
      "name" : "(2016 AJ193)",
      "nasa_jpl_url" : "http://ssd.jpl.nasa.gov/sbdb.cgi?sstr=3740498",
      "absolute_magnitude_h" : 18.7,
      "estimated_diameter" : {
        "kilometers" : {
          "estimated_diameter_min" : 0.4836764882,
          "estimated_diameter_max" : 1.0815335068
        },
        "meters" : {
          "estimated_diameter_min" : 483.6764882185,
          "estimated_diameter_max" : 1081.533506775
        },
        "miles" : {
          "estimated_diameter_min" : 0.3005425432,
          "estimated_diameter_max" : 0.6720335566
        },
        "feet" : {
          "estimated_diameter_min" : 1586.8651696069,
          "estimated_diameter_max" : 3548.3383903678
        }
      },
      "is_potentially_hazardous_asteroid" : true,
      "close_approach_data" : [ {
        "close_approach_date" : "2010-02-08",
        "epoch_date_close_approach" : 1265616000000,
        "relative_velocity" : {
          "kilometers_per_second" : "25.2206675964",
          "kilometers_per_hour" : "90794.4033471599",
          "miles_per_hour" : "56416.1113464617"
        },
        "miss_distance" : {
          "astronomical" : "0.1029781662",
          "lunar" : "40.0585098267",
          "kilometers" : "15405315",
          "miles" : "9572419"
        },
        "orbiting_body" : "Earth"
      } ],
      "orbital_data" : {
        "orbit_id" : "25",
        "orbit_determination_date" : "2017-05-26 06:18:09",
        "orbit_uncertainty" : "4",
        "minimum_orbit_intersection" : ".025236",
        "jupiter_tisserand_invariant" : "2.438",
        "epoch_osculation" : "2458000.5",
        "eccentricity" : ".8173287419652975",
        "semi_major_axis" : "3.259846388407106",
        "inclination" : "22.6598825075118",
        "ascending_node_longitude" : "332.7252396291863",
        "orbital_period" : "2149.780554552584",
        "perihelion_distance" : ".5954802407702077",
        "perihelion_argument" : "80.88862474989855",
        "aphelion_distance" : "5.924212536044005",
        "perihelion_time" : "2457344.658950141964",
        "mean_anomaly" : "109.8264552858192",
        "mean_motion" : ".1674589526068738",
        "equinox" : "J2000"
      }
    }, {
      "links" : {
        "self" : "https://api.nasa.gov/neo/rest/v1/neo/3766124?api_key=t0TVs3DtDT2H8Oy2Zy8m2eVrNsAVKAexjcZXUckd"
      },
      "neo_reference_id" : "3766124",
      "name" : "(2016 YO3)",
      "nasa_jpl_url" : "http://ssd.jpl.nasa.gov/sbdb.cgi?sstr=3766124",
      "absolute_magnitude_h" : 20.1,
      "estimated_diameter" : {
        "kilometers" : {
          "estimated_diameter_min" : 0.2538370294,
          "estimated_diameter_max" : 0.5675968529
        },
        "meters" : {
          "estimated_diameter_min" : 253.8370293645,
          "estimated_diameter_max" : 567.5968528656
        },
        "miles" : {
          "estimated_diameter_min" : 0.1577269688,
          "estimated_diameter_max" : 0.3526882241
        },
        "feet" : {
          "estimated_diameter_min" : 832.7986794202,
          "estimated_diameter_max" : 1862.1944587557
        }
      },
      "is_potentially_hazardous_asteroid" : false,
      "close_approach_data" : [ {
        "close_approach_date" : "2010-02-08",
        "epoch_date_close_approach" : 1265616000000,
        "relative_velocity" : {
          "kilometers_per_second" : "11.9053722118",
          "kilometers_per_hour" : "42859.3399623536",
          "miles_per_hour" : "26631.1271004969"
        },
        "miss_distance" : {
          "astronomical" : "0.4995502886",
          "lunar" : "194.3250579834",
          "kilometers" : "74731656",
          "miles" : "46436100"
        },
        "orbiting_body" : "Earth"
      } ],
      "orbital_data" : {
        "orbit_id" : "14",
        "orbit_determination_date" : "2017-04-06 08:21:21",
        "orbit_uncertainty" : "4",
        "minimum_orbit_intersection" : ".0793644",
        "jupiter_tisserand_invariant" : "4.992",
        "epoch_osculation" : "2458000.5",
        "eccentricity" : ".2675825788882134",
        "semi_major_axis" : "1.265603836154652",
        "inclination" : "22.10116881717374",
        "ascending_node_longitude" : "285.4642304658117",
        "orbital_period" : "520.0499999609674",
        "perihelion_distance" : ".9269502978255745",
        "perihelion_argument" : "342.6940287784832",
        "aphelion_distance" : "1.60425737448373",
        "perihelion_time" : "2457985.344814683335",
        "mean_anomaly" : "10.49104261976502",
        "mean_motion" : ".6922411307124698",
        "equinox" : "J2000"
      }
    } ]
  }
}